[{"OBJECT_NAME":"KUIPER-00215","OBJECT_ID":"2026-030R","EPOCH":"2026-03-05T22:32:53.784960","MEAN_MOTION":15.34294551,"ECCENTRICITY":0.00100813,"INCLINATION":51.8846,"RA_OF_ASC_NODE":237.4358,"ARG_OF_PERICENTER":49.4504,"MEAN_ANOMALY":310.7357,"EPHEMERIS_TYPE":0,"CLASSIFICATION_TYPE":"U","NORAD_CAT_ID":67779,"ELEMENT_SET_NO":999,"REV_AT_EPOCH":451,"BSTAR":0.00077706304,"MEAN_MOTION_DOT":0.0002594,"MEAN_MOTION_DDOT":0},{"OBJECT_NAME":"KUIPER-00218","OBJECT_ID":"2026-030S","EPOCH":"2026-03-05T22:18:45.590112","MEAN_MOTION":15.35017215,"ECCENTRICITY":0.00066959,"INCLINATION":51.884,"RA_OF_ASC_NODE":237.3716,"ARG_OF_PERICENTER":38.917,"MEAN_ANOMALY":321.2297,"EPHEMERIS_TYPE":0,"CLASSIFICATION_TYPE":"U","NORAD_CAT_ID":67780,"ELEMENT_SET_NO":999,"REV_AT_EPOCH":451,"BSTAR":0.00092649543,"MEAN_MOTION_DOT":0.00031727,"MEAN_MOTION_DDOT":0},{"OBJECT_NAME":"KUIPER-00220","OBJECT_ID":"2026-030T","EPOCH":"2026-03-05T22:27:45.538272","MEAN_MOTION":15.34598356,"ECCENTRICITY":0.00084763,"INCLINATION":51.882,"RA_OF_ASC_NODE":237.4053,"ARG_OF_PERICENTER":44.7441,"MEAN_ANOMALY":315.4227,"EPHEMERIS_TYPE":0,"CLASSIFICATION_TYPE":"U","NORAD_CAT_ID":67781,"ELEMENT_SET_NO":999,"REV_AT_EPOCH":451,"BSTAR":0.00096435316,"MEAN_MOTION_DOT":0.00032615,"MEAN_MOTION_DDOT":0},{"OBJECT_NAME":"KUIPER-00222","OBJECT_ID":"2026-030U","EPOCH":"2026-03-05T21:27:03.669408","MEAN_MOTION":15.32424177,"ECCENTRICITY":0.00174421,"INCLINATION":51.88,"RA_OF_ASC_NODE":237.8641,"ARG_OF_PERICENTER":51.3163,"MEAN_ANOMALY":308.9379,"EPHEMERIS_TYPE":0,"CLASSIFICATION_TYPE":"U","NORAD_CAT_ID":67782,"ELEMENT_SET_NO":999,"REV_AT_EPOCH":450,"BSTAR":0.00086651796,"MEAN_MOTION_DOT":0.00027382,"MEAN_MOTION_DDOT":0},{"OBJECT_NAME":"KUIPER-00223","OBJECT_ID":"2026-030V","EPOCH":"2026-03-05T21:03:58.724064","MEAN_MOTION":15.34047466,"ECCENTRICITY":0.0012391,"INCLINATION":51.8832,"RA_OF_ASC_NODE":237.7681,"ARG_OF_PERICENTER":47.624,"MEAN_ANOMALY":312.5792,"EPHEMERIS_TYPE":0,"CLASSIFICATION_TYPE":"U","NORAD_CAT_ID":67783,"ELEMENT_SET_NO":999,"REV_AT_EPOCH":450,"BSTAR":0.0008856284,"MEAN_MOTION_DOT":0.00029421,"MEAN_MOTION_DDOT":0},{"OBJECT_NAME":"KUIPER-00225","OBJECT_ID":"2026-030W","EPOCH":"2026-03-05T22:05:31.124832","MEAN_MOTION":15.35733269,"ECCENTRICITY":0.00042239,"INCLINATION":51.8811,"RA_OF_ASC_NODE":237.3061,"ARG_OF_PERICENTER":29.2682,"MEAN_ANOMALY":330.854,"EPHEMERIS_TYPE":0,"CLASSIFICATION_TYPE":"U","NORAD_CAT_ID":67784,"ELEMENT_SET_NO":999,"REV_AT_EPOCH":451,"BSTAR":0.0007170211,"MEAN_MOTION_DOT":0.00025008,"MEAN_MOTION_DDOT":0},{"OBJECT_NAME":"KUIPER-00226","OBJECT_ID":"2026-030X","EPOCH":"2026-03-05T21:43:48.399456","MEAN_MOTION":15.31192531,"ECCENTRICITY":0.00196696,"INCLINATION":51.8805,"RA_OF_ASC_NODE":237.9392,"ARG_OF_PERICENTER":63.0901,"MEAN_ANOMALY":297.209,"EPHEMERIS_TYPE":0,"CLASSIFICATION_TYPE":"U","NORAD_CAT_ID":67785,"ELEMENT_SET_NO":999,"REV_AT_EPOCH":450,"BSTAR":-0.00013627059,"MEAN_MOTION_DOT":-4.567e-5,"MEAN_MOTION_DDOT":0},{"OBJECT_NAME":"KUIPER-00259","OBJECT_ID":"2026-030Y","EPOCH":"2026-03-05T22:21:44.544384","MEAN_MOTION":15.34910041,"ECCENTRICITY":0.00083317,"INCLINATION":51.8815,"RA_OF_ASC_NODE":237.3775,"ARG_OF_PERICENTER":39.074,"MEAN_ANOMALY":321.0846,"EPHEMERIS_TYPE":0,"CLASSIFICATION_TYPE":"U","NORAD_CAT_ID":67786,"ELEMENT_SET_NO":999,"REV_AT_EPOCH":451,"BSTAR":0.00074730458,"MEAN_MOTION_DOT":0.00025416,"MEAN_MOTION_DDOT":0},{"OBJECT_NAME":"KUIPER-00260","OBJECT_ID":"2026-030Z","EPOCH":"2026-03-05T20:20:32.265888","MEAN_MOTION":15.36296961,"ECCENTRICITY":0.00010597,"INCLINATION":51.8795,"RA_OF_ASC_NODE":237.5679,"ARG_OF_PERICENTER":54.1834,"MEAN_ANOMALY":305.9251,"EPHEMERIS_TYPE":0,"CLASSIFICATION_TYPE":"U","NORAD_CAT_ID":67787,"ELEMENT_SET_NO":999,"REV_AT_EPOCH":441,"BSTAR":0.00087819817,"MEAN_MOTION_DOT":0.00031303,"MEAN_MOTION_DDOT":0},{"OBJECT_NAME":"KUIPER-00262","OBJECT_ID":"2026-030AA","EPOCH":"2026-03-05T21:48:59.487840","MEAN_MOTION":15.36615016,"ECCENTRICITY":3.17e-5,"INCLINATION":51.8807,"RA_OF_ASC_NODE":237.2337,"ARG_OF_PERICENTER":122.7883,"MEAN_ANOMALY":237.3134,"EPHEMERIS_TYPE":0,"CLASSIFICATION_TYPE":"U","NORAD_CAT_ID":67788,"ELEMENT_SET_NO":999,"REV_AT_EPOCH":451,"BSTAR":0.00077359361,"MEAN_MOTION_DOT":0.00027801,"MEAN_MOTION_DDOT":0},{"OBJECT_NAME":"KUIPER-00266","OBJECT_ID":"2026-030AB","EPOCH":"2026-03-05T21:50:32.557056","MEAN_MOTION":15.30932881,"ECCENTRICITY":0.00225619,"INCLINATION":51.8804,"RA_OF_ASC_NODE":237.9666,"ARG_OF_PERICENTER":62.4237,"MEAN_ANOMALY":297.9035,"EPHEMERIS_TYPE":0,"CLASSIFICATION_TYPE":"U","NORAD_CAT_ID":67789,"ELEMENT_SET_NO":999,"REV_AT_EPOCH":450,"BSTAR":0.00033617784,"MEAN_MOTION_DOT":9.911e-5,"MEAN_MOTION_DDOT":0},{"OBJECT_NAME":"KUIPER-00268","OBJECT_ID":"2026-030AC","EPOCH":"2026-03-05T22:01:50.721888","MEAN_MOTION":15.35842504,"ECCENTRICITY":0.00025362,"INCLINATION":51.8841,"RA_OF_ASC_NODE":237.2975,"ARG_OF_PERICENTER":37.4716,"MEAN_ANOMALY":322.6446,"EPHEMERIS_TYPE":0,"CLASSIFICATION_TYPE":"U","NORAD_CAT_ID":67790,"ELEMENT_SET_NO":999,"REV_AT_EPOCH":451,"BSTAR":0.0013004743,"MEAN_MOTION_DOT":0.00045953,"MEAN_MOTION_DDOT":0},{"OBJECT_NAME":"KUIPER-00270","OBJECT_ID":"2026-030AD","EPOCH":"2026-03-05T22:29:44.286432","MEAN_MOTION":15.34486989,"ECCENTRICITY":0.00102132,"INCLINATION":51.8814,"RA_OF_ASC_NODE":237.4126,"ARG_OF_PERICENTER":45.9042,"MEAN_ANOMALY":314.2783,"EPHEMERIS_TYPE":0,"CLASSIFICATION_TYPE":"U","NORAD_CAT_ID":67791,"ELEMENT_SET_NO":999,"REV_AT_EPOCH":451,"BSTAR":0.0007386519,"MEAN_MOTION_DOT":0.00024789,"MEAN_MOTION_DDOT":0},{"OBJECT_NAME":"KUIPER-00274","OBJECT_ID":"2026-030AE","EPOCH":"2026-03-05T21:35:04.442208","MEAN_MOTION":15.31053736,"ECCENTRICITY":0.00159408,"INCLINATION":51.8816,"RA_OF_ASC_NODE":237.9052,"ARG_OF_PERICENTER":63.7,"MEAN_ANOMALY":296.5619,"EPHEMERIS_TYPE":0,"CLASSIFICATION_TYPE":"U","NORAD_CAT_ID":67792,"ELEMENT_SET_NO":999,"REV_AT_EPOCH":450,"BSTAR":-0.0012315336,"MEAN_MOTION_DOT":-0.00037828,"MEAN_MOTION_DDOT":0},{"OBJECT_NAME":"KUIPER-00275","OBJECT_ID":"2026-030AF","EPOCH":"2026-03-05T22:25:56.161056","MEAN_MOTION":15.34559702,"ECCENTRICITY":0.00090107,"INCLINATION":51.8846,"RA_OF_ASC_NODE":237.4047,"ARG_OF_PERICENTER":42.9278,"MEAN_ANOMALY":317.2409,"EPHEMERIS_TYPE":0,"CLASSIFICATION_TYPE":"U","NORAD_CAT_ID":67793,"ELEMENT_SET_NO":999,"REV_AT_EPOCH":451,"BSTAR":0.00071486523,"MEAN_MOTION_DOT":0.00024023,"MEAN_MOTION_DDOT":0},{"OBJECT_NAME":"KUIPER-00276","OBJECT_ID":"2026-030AG","EPOCH":"2026-03-05T21:40:39.779616","MEAN_MOTION":15.31286386,"ECCENTRICITY":0.00188159,"INCLINATION":51.8812,"RA_OF_ASC_NODE":237.9285,"ARG_OF_PERICENTER":56.7284,"MEAN_ANOMALY":303.55,"EPHEMERIS_TYPE":0,"CLASSIFICATION_TYPE":"U","NORAD_CAT_ID":67794,"ELEMENT_SET_NO":999,"REV_AT_EPOCH":450,"BSTAR":-0.00065459657,"MEAN_MOTION_DOT":-0.00020507,"MEAN_MOTION_DDOT":0}]
