KUIPER-00215            
1 67779U 26030R   26064.93951140  .00025940  00000+0  77706-3 0  9996
2 67779  51.8846 237.4358 0010081  49.4504 310.7357 15.34294551  4513
KUIPER-00218            
1 67780U 26030S   26064.92969433  .00031727  00000+0  92650-3 0  9996
2 67780  51.8840 237.3716 0006695  38.9170 321.2297 15.35017215  4515
KUIPER-00220            
1 67781U 26030T   26064.93594373  .00032615  00000+0  96435-3 0  9997
2 67781  51.8820 237.4053 0008476  44.7441 315.4227 15.34598356  4511
KUIPER-00222            
1 67782U 26030U   26064.89379247  .00027382  00000+0  86652-3 0  9999
2 67782  51.8800 237.8641 0017442  51.3163 308.9379 15.32424177  4506
KUIPER-00223            
1 67783U 26030V   26064.87776301  .00029421  00000+0  88563-3 0  9999
2 67783  51.8832 237.7681 0012391  47.6240 312.5792 15.34047466  4501
KUIPER-00225            
1 67784U 26030W   26064.92049913  .00025008  00000+0  71702-3 0  9992
2 67784  51.8811 237.3061 0004223  29.2682 330.8540 15.35733269  4517
KUIPER-00226            
1 67785U 26030X   26064.90542129 -.00004567  00000+0 -13627-3 0  9999
2 67785  51.8805 237.9392 0019669  63.0901 297.2090 15.31192531  4506
KUIPER-00259            
1 67786U 26030Y   26064.93176556  .00025416  00000+0  74730-3 0  9996
2 67786  51.8815 237.3775 0008331  39.0740 321.0846 15.34910041  4518
KUIPER-00260            
1 67787U 26030Z   26064.84759567  .00031303  00000+0  87820-3 0  9992
2 67787  51.8795 237.5679 0001059  54.1834 305.9251 15.36296961  4413
KUIPER-00262            
1 67788U 26030AA  26064.90902185  .00027801  00000+0  77359-3 0  9990
2 67788  51.8807 237.2337 0000317 122.7883 237.3134 15.36615016  4513
KUIPER-00266            
1 67789U 26030AB  26064.91009904  .00009911  00000+0  33618-3 0  9991
2 67789  51.8804 237.9666 0022561  62.4237 297.9035 15.30932881  4508
KUIPER-00268            
1 67790U 26030AC  26064.91794817  .00045953  00000+0  13005-2 0  9990
2 67790  51.8841 237.2975 0002536  37.4716 322.6446 15.35842504  4511
KUIPER-00270            
1 67791U 26030AD  26064.93731813  .00024789  00000+0  73865-3 0  9995
2 67791  51.8814 237.4126 0010213  45.9042 314.2783 15.34486989  4510
KUIPER-00274            
1 67792U 26030AE  26064.89935697 -.00037828  00000+0 -12315-2 0  9999
2 67792  51.8816 237.9052 0015940  63.7000 296.5619 15.31053736  4506
KUIPER-00275            
1 67793U 26030AF  26064.93467779  .00024023  00000+0  71487-3 0  9993
2 67793  51.8846 237.4047 0009010  42.9278 317.2409 15.34559702  4512
KUIPER-00276            
1 67794U 26030AG  26064.90323819 -.00020507  00000+0 -65460-3 0  9996
2 67794  51.8812 237.9285 0018815  56.7284 303.5500 15.31286386  4509
